NORAD_CAT_ID,OBJECT_NAME,OBJECT_TYPE,EPOCH,MEAN_MOTION,ECCENTRICITY,INCLINATION,RA_OF_ASC_NODE,ARG_OF_PERICENTER,MEAN_ANOMALY,BSTAR,MEAN_MOTION_DOT,MEAN_MOTION_DDOT,TLE_LINE0,TLE_LINE1,TLE_LINE2,SEMIMAJOR_AXIS,PERIOD,APOGEE,PERIGEE,DECAYED
53827.0,STARLINK-4764,PAYLOAD,2022-10-14 18:00:00,15.73205136,0.0001304,53.2175,131.5831,65.0334,127.9883,-1.0511e-06,-7.67e-06,0.0,0 STARLINK-4764,1 53827U 22114K   22287.75001157 -.00000767  00000-0 -10511-5 0  9997,2 53827  53.2175 131.5831 0001304  65.0334 127.9883 15.73205136  1306,6727.880999999999,91.533,350.62300000000016,348.86800000000005,0.0
53827.0,STARLINK-4764,PAYLOAD,2022-10-15 06:00:00,15.73163824,7.219999999999999e-05,53.217,129.1079,62.9147,83.5288,0.0004677,0.00065429,0.0,0 STARLINK-4764,1 53827U 22114K   22288.25001157  .00065429  00000-0  46770-3 0  9991,2 53827  53.2170 129.1079 0000722  62.9147  83.5288 15.73163824  4709,6727.998000000001,91.535,350.349,349.37800000000016,0.0
53827.0,STARLINK-4764,PAYLOAD,2022-10-15 14:00:01,15.73220013,0.0001330999999999,53.214,127.4548,62.4109,173.0434,-0.00040509,-0.00057136,0.0,0 STARLINK-4764,1 53827U 22114K   22288.58334491 -.00057136  00000-0 -40509-3 0  9999,2 53827  53.2140 127.4548 0001331  62.4109 173.0434 15.73220013  1303,6727.8380000000025,91.532,350.599,348.80800000000005,0.0
53827.0,STARLINK-4764,PAYLOAD,2022-10-15 22:00:01,15.73205229,0.000132,53.2175,125.8106,76.6634,247.6937,-1.3415999999999997e-05,-2.503e-05,0.0,0 STARLINK-4764,1 53827U 22114K   22288.91668981 -.00002503  00000-0 -13416-4 0  9996,2 53827  53.2175 125.8106 0001320  76.6634 247.6937 15.73205229  4807,6727.88,91.533,350.6330000000001,348.857,0.0
53827.0,STARLINK-4764,PAYLOAD,2022-10-16 14:00:01,15.73166625,0.00013,53.2139,122.5063,58.5479,83.6253,6.8793e-05,9.032e-05,0.0,0 STARLINK-4764,1 53827U 22114K   22289.58334491  .00009032  00000-0  68793-4 0  9996,2 53827  53.2139 122.5063 0001300  58.5479  83.6253 15.73166625  1304,6727.99,91.535,350.73,348.981,0.0
53827.0,STARLINK-4764,PAYLOAD,2022-10-16 22:00:00,15.73149208,0.000146,53.215,120.8603,44.6771,186.3898,0.00078441,0.00110687,0.0,0 STARLINK-4764,1 53827U 22114K   22289.91667824  .00110687  00000-0  78441-3 0  9991,2 53827  53.2150 120.8603 0001460  44.6771 186.3898 15.73149208  1300,6728.04,91.536,350.88699999999994,348.923,0.0
53827.0,STARLINK-4764,PAYLOAD,2022-10-17 06:00:00,15.73227751,0.0001349,53.2149,119.2083,47.7836,272.1284,-0.00028958,-0.00041111,0.0,0 STARLINK-4764,1 53827U 22114K   22290.25001157 -.00041111  00000-0 -28958-3 0  9996,2 53827  53.2149 119.2083 0001349  47.7836 272.1284 15.73227751  5019,6727.816,91.532,350.589,348.773,0.0
53827.0,STARLINK-4764,PAYLOAD,2022-10-17 14:00:01,15.73220702,0.0001403,53.2145,117.5583,55.5423,353.3709,0.00040534,0.00056702,0.0,0 STARLINK-4764,1 53827U 22114K   22290.58334491  .00056702  00000-0  40534-3 0  9996,2 53827  53.2145 117.5583 0001403  55.5423 353.3709 15.73220702  5069,6727.8359999999975,91.532,350.645,348.75699999999995,0.0
53827.0,STARLINK-4764,PAYLOAD,2022-10-17 22:00:00,15.7323531,0.0001574,53.2136,115.9106,43.8057,94.0657,-0.00028251,-0.00040141,0.0,0 STARLINK-4764,1 53827U 22114K   22290.91667824 -.00040141  00000-0 -28251-3 0  9996,2 53827  53.2136 115.9106 0001574  43.8057  94.0657 15.73235310  1309,6727.795,91.531,350.718,348.601,0.0
53827.0,STARLINK-4764,PAYLOAD,2022-10-18 14:00:01,15.73159266,0.0001296999999999,53.2137,112.6095,45.4046,270.3353,0.00033897,0.00047136,0.0,0 STARLINK-4764,1 53827U 22114K   22291.58334491  .00047136  00000-0  33897-3 0  9992,2 53827  53.2137 112.6095 0001297  45.4046 270.3353 15.73159266  1306,6728.011,91.536,350.749,349.004,0.0
53827.0,STARLINK-4764,PAYLOAD,2022-10-18 22:00:00,15.7320264,0.0001568,53.2176,110.9647,51.4887,353.2123,2.1749e-05,2.433e-05,0.0,0 STARLINK-4764,1 53827U 22114K   22291.91667824  .00002433  00000-0  21749-4 0  9993,2 53827  53.2176 110.9647 0001568  51.4887 353.2123 15.73202640  5275,6727.888000000001,91.533,350.80800000000005,348.6980000000001,0.0
53827.0,STARLINK-4764,PAYLOAD,2022-10-19 08:00:01,15.73159521,0.0001491,53.2148,108.8977,42.6511,203.1767,0.00060218,0.000846,0.0,0 STARLINK-4764,1 53827U 22114K   22292.33334491  .00084600  00000-0  60218-3 0  9990,2 53827  53.2148 108.8977 0001491  42.6511 203.1767 15.73159521  5341,6728.011,91.536,350.879,348.872,0.0
53827.0,STARLINK-4764,PAYLOAD,2022-10-19 14:00:01,15.73238556,0.0001520999999999,53.2152,107.6611,44.5031,178.0122,0.00020298,0.00028009,0.0,0 STARLINK-4764,1 53827U 22114K   22292.58334491  .00028009  00000-0  20298-3 0  9992,2 53827  53.2152 107.6611 0001521  44.5031 178.0122 15.73238556  1303,6727.785,91.531,350.6740000000001,348.62699999999984,0.0
53827.0,STARLINK-4764,PAYLOAD,2022-10-19 22:00:00,15.73274288,0.0001469,53.2164,106.0151,40.7137,270.7984,-0.0011917,-0.00165154,0.0,0 STARLINK-4764,1 53827U 22114K   22292.91667824 -.00165154  00000-0 -11917-2 0  9990,2 53827  53.2164 106.0151 0001469  40.7137 270.7984 15.73274288  1302,6727.683000000001,91.529,350.537,348.56,0.0
53827.0,STARLINK-4764,PAYLOAD,2022-10-20 06:00:00,15.73197419,0.0001486,53.2148,104.3617,38.1944,2.2809,-5.985100000000003e-05,-9.01e-05,0.0,0 STARLINK-4764,1 53827U 22114K   22293.25001157 -.00009010  00000-0 -59851-4 0  9998,2 53827  53.2148 104.3617 0001486  38.1944   2.2809 15.73197419  5485,6727.903,91.533,350.767,348.76800000000014,0.0
53827.0,STARLINK-4764,PAYLOAD,2022-10-20 14:00:01,15.73192561,0.0001503,53.2154,102.7126,39.2244,90.173,6.8860000000000015e-06,3.46e-06,0.0,0 STARLINK-4764,1 53827U 22114K   22293.58334491  .00000346  00000-0  68860-5 0  9996,2 53827  53.2154 102.7126 0001503  39.2244  90.1730 15.73192561  1303,6727.916,91.534,350.793,348.77,0.0
53827.0,STARLINK-4764,PAYLOAD,2022-10-20 22:00:00,15.73114078,0.000186,53.2154,101.0652,33.0435,185.2317,0.00021691,0.00029819,0.0,0 STARLINK-4764,1 53827U 22114K   22293.91667824  .00029819  00000-0  21691-3 0  9997,2 53827  53.2154 101.0652 0001860  33.0435 185.2317 15.73114078  5598,6728.14,91.538,351.25699999999995,348.754,0.0
53827.0,STARLINK-4764,PAYLOAD,2022-10-21 06:00:00,15.73152696,0.000172,53.2158,99.4134,38.4929,268.7053,0.00051268,0.00071803,0.0,0 STARLINK-4764,1 53827U 22114K   22294.25001157  .00071803  00000-0  51268-3 0  9999,2 53827  53.2158  99.4134 0001720  38.4929 268.7053 15.73152696  5647,6728.03,91.536,351.052,348.73800000000006,0.0
53827.0,STARLINK-4764,PAYLOAD,2022-10-21 14:00:01,15.73253033,0.000175,53.2157,97.7644,37.56,358.5873,0.00020777,0.00028705,0.0,0 STARLINK-4764,1 53827U 22114K   22294.58334491  .00028705  00000-0  20777-3 0  9999,2 53827  53.2157  97.7644 0001750  37.5600 358.5873 15.73253033  1306,6727.744000000002,91.53,350.786,348.432,0.0
53827.0,STARLINK-4764,PAYLOAD,2022-10-21 22:00:00,15.73256024,0.0001975,53.2142,96.1156,30.7537,94.3734,-0.00031023,-0.0004403999999999,0.0,0 STARLINK-4764,1 53827U 22114K   22294.91667824 -.00044040  00000-0 -31023-3 0  9993,2 53827  53.2142  96.1156 0001975  30.7537  94.3734 15.73256024  5751,6727.735,91.53,350.92900000000014,348.272,0.0
53827.0,STARLINK-4764,PAYLOAD,2022-10-22 14:00:01,15.73147464,0.0001803,53.2153,92.8155,35.7057,267.3228,0.00024644,0.00034029,0.0,0 STARLINK-4764,1 53827U 22114K   22295.58334491  .00034029  00000-0  24644-3 0  9993,2 53827  53.2153  92.8155 0001803  35.7057 267.3228 15.73147464  1301,6728.045,91.536,351.12300000000016,348.69699999999995,0.0
53827.0,STARLINK-4764,PAYLOAD,2022-10-22 22:00:00,15.73174134,0.0002009999999999,53.2143,91.1665,26.9806,4.9444,0.00091904,0.00130238,0.0,0 STARLINK-4764,1 53827U 22114K   22295.91667824  .00130238  00000-0  91904-3 0  9991,2 53827  53.2143  91.1665 0002010  26.9806   4.9444 15.73174134  1302,6727.969,91.535,351.186,348.482,0.0
53827.0,STARLINK-4764,PAYLOAD,2022-10-23 00:00:02,15.73215968,0.000197,53.2143,90.7536,26.7102,117.5036,0.00054347,0.00076404,0.0,0 STARLINK-4764,1 53827U 22114K   22296.00002315  .00076404  00000-0  54347-3 0  9994,2 53827  53.2143  90.7536 0001970  26.7102 117.5036 15.73215968  5926,6727.85,91.532,351.04,348.389,0.0
53827.0,STARLINK-4764,PAYLOAD,2022-10-23 14:00:01,15.73272814,0.0001923,53.2145,87.8659,26.8572,183.0218,-0.00047137,-0.00066465,0.0,0 STARLINK-4764,1 53827U 22114K   22296.58334491 -.00066465  00000-0 -47137-3 0  9997,2 53827  53.2145  87.8659 0001923  26.8572 183.0218 15.73272814  6015,6727.688,91.529,350.846,348.259,0.0
53827.0,STARLINK-4764,PAYLOAD,2022-10-23 22:00:00,15.73242433,0.0002110999999999,53.2139,86.2172,23.1251,275.7301,-0.0003578999999999,-0.00050645,0.0,0 STARLINK-4764,1 53827U 22114K   22296.91667824 -.00050645  00000-0 -35790-3 0  9998,2 53827  53.2139  86.2172 0002111  23.1251 275.7301 15.73242433  1308,6727.774,91.531,351.059,348.219,0.0
53827.0,STARLINK-4764,PAYLOAD,2022-10-24 14:00:01,15.73080737,0.0001995,53.2144,82.9171,25.0038,91.6791,0.00033347,0.00046201,0.0,0 STARLINK-4764,1 53827U 22114K   22297.58334491  .00046201  00000-0  33347-3 0  9990,2 53827  53.2144  82.9171 0001995  25.0038  91.6791 15.73080737  1304,6728.235,91.54,351.4430000000001,348.7580000000001,0.0
53827.0,STARLINK-4764,PAYLOAD,2022-10-24 22:00:00,15.73123141,0.0002149,53.2144,81.2687,18.1951,187.2779,0.00095845,0.00135642,0.0,0 STARLINK-4764,1 53827U 22114K   22297.91667824  .00135642  00000-0  95845-3 0  9995,2 53827  53.2144  81.2687 0002149  18.1951 187.2779 15.73123141  1302,6728.114000000001,91.538,351.425,348.533,0.0
53827.0,STARLINK-4764,PAYLOAD,2022-10-25 00:00:00,15.73184722,0.0002141,53.2146,80.8558,17.5081,300.1663,0.00031131,0.00043269,0.0,0 STARLINK-4764,1 53827U 22114K   22298.00001157  .00043269  00000-0  31131-3 0  9998,2 53827  53.2146  80.8558 0002141  17.5081 300.1663 15.73184722  6232,6727.939,91.534,351.244,348.36300000000006,0.0
53827.0,STARLINK-4764,PAYLOAD,2022-10-25 14:00:01,15.73218696,0.0002266,53.2148,77.9687,24.4087,358.9133,-0.00010267,-0.00015018,0.0,0 STARLINK-4764,1 53827U 22114K   22298.58334491 -.00015018  00000-0 -10267-3 0  9991,2 53827  53.2148  77.9687 0002266  24.4087 358.9133 15.73218696  1309,6727.842,91.532,351.231,348.182,0.0
